[{"OBJECT_NAME":"STARLINK-5184","OBJECT_ID":"2022-136AN","EPOCH":"2026-03-09T22:01:13.684800","MEAN_MOTION":15.08842116,"ECCENTRICITY":0.00014087,"INCLINATION":53.2177,"RA_OF_ASC_NODE":332.7397,"ARG_OF_PERICENTER":95.8315,"MEAN_ANOMALY":264.2837,"EPHEMERIS_TYPE":0,"CLASSIFICATION_TYPE":"U","NORAD_CAT_ID":54087,"ELEMENT_SET_NO":999,"REV_AT_EPOCH":18702,"BSTAR":0.00044432551,"MEAN_MOTION_DOT":6.791e-5,"MEAN_MOTION_DDOT":0},{"OBJECT_NAME":"FENGYUN 1C DEB","OBJECT_ID":"1999-025BNW","EPOCH":"2026-03-06T10:01:07.743936","MEAN_MOTION":15.11996262,"ECCENTRICITY":0.00143439,"INCLINATION":98.7438,"RA_OF_ASC_NODE":239.2093,"ARG_OF_PERICENTER":346.0612,"MEAN_ANOMALY":44.2284,"EPHEMERIS_TYPE":0,"CLASSIFICATION_TYPE":"U","NORAD_CAT_ID":31288,"ELEMENT_SET_NO":999,"REV_AT_EPOCH":98814,"BSTAR":0.0072973407,"MEAN_MOTION_DOT":0.00127645,"MEAN_MOTION_DDOT":0}]
